NOAA 15                 
1 25338U 98030A   23151.39102422  .00000242  00000+0  11898-3 0  9993
2 25338  98.6064 180.7344 0010402  10.0441 350.0945 14.26323889302861
DMSP 5D-3 F15 (USA 147) 
1 25991U 99067A   23151.48944844  .00000178  00000+0  11213-3 0  9990
2 25991  99.0698 154.4449 0008963 283.8979 248.4393 14.16737516213068
DMSP 5D-3 F16 (USA 172) 
1 28054U 03048A   23151.46995097  .00000071  00000+0  61511-4 0  9990
2 28054  99.0113 149.5714 0008293  58.7121  94.7788 14.13812592 12193
NOAA 18                 
1 28654U 05018A   23151.42514737  .00000227  00000+0  14548-3 0  9999
2 28654  98.9096 225.8963 0015263  69.9664 290.3150 14.12943739929205
METEOSAT-9 (MSG-2)      
1 28912U 05049B   23150.87227036  .00000144  00000+0  00000+0 0  9993
2 28912   6.8077  63.8929 0001979 172.9475  11.0039  1.00269294 63882
EWS-G1 (GOES 13)        
1 29155U 06018A   23150.81163137  .00000058  00000+0  00000+0 0  9999
2 29155   1.4876  91.8427 0001934  78.5337  71.1136  1.00271551 32210
DMSP 5D-3 F17 (USA 191) 
1 29522U 06050A   23151.39471063  .00000081  00000+0  65072-4 0  9998
2 29522  98.7535 164.7332 0009891 358.2889   1.8248 14.14252169855089
FENGYUN 3A              
1 32958U 08026A   23151.42816254  .00000124  00000+0  79903-4 0  9995
2 32958  98.5543 105.8116 0009908  96.3569 263.8736 14.18871658777688
FENGYUN 2E              
1 33463U 08066A   23150.90248894 -.00000187  00000+0  00000+0 0  9999
2 33463   6.6824  63.1142 0001448 359.0342 237.6352  1.00268205 52938
NOAA 19                 
1 33591U 09005A   23151.39663560  .00000212  00000+0  13880-3 0  9992
2 33591  99.1004 197.0545 0012815 291.5391  68.4414 14.12761347737576
GOES 14                 
1 35491U 09033A   23151.20945029 -.00000046  00000+0  00000+0 0  9999
2 35491   0.2966 107.0771 0006254 318.9992 149.1844  1.00269052 50997
METEOR-M 1              
1 35865U 09049A   23151.45631760  .00000080  00000+0  55081-4 0  9993
2 35865  98.5792 116.6655 0001358 319.9797  40.1281 14.22498913711155
DMSP 5D-3 F18 (USA 210) 
1 35951U 09057A   23151.43031487  .00000291  00000+0  17683-3 0  9995
2 35951  98.7664 128.1033 0011176 169.9406 190.1993 14.13766948702273
GOES 15                 
1 36411U 10008A   23151.44749038  .00000153  00000+0  00000+0 0  9992
2 36411   0.3182  95.8521 0000909 325.3464 193.5451  1.00152896 48491
COMS 1                  
1 36744U 10032A   23150.96865348 -.00000325  00000+0  00000+0 0  9999
2 36744   1.9483  88.9448 0001095 345.9628 290.1771  1.00271442 47496
FENGYUN 3B              
1 37214U 10059A   23151.36391755  .00000109  00000+0  80757-4 0  9993
2 37214  99.0841 168.4499 0023313  93.7113 325.1684 14.14341592650135
SUOMI NPP               
1 37849U 11061A   23151.47472164  .00000080  00000+0  58388-4 0  9990
2 37849  98.7039  90.4766 0001038  70.4886  38.2726 14.19564189600569
FENGYUN 2F              
1 38049U 12002A   23151.17146705 -.00000338  00000+0  00000+0 0  9995
2 38049   4.6461  76.8174 0003797  78.0890 266.9183  1.00284007 41729
METEOSAT-10 (MSG-3)     
1 38552U 12035B   23150.65643001  .00000010  00000+0  00000+0 0  9999
2 38552   2.1395  55.2588 0001170 338.1186  90.8830  1.00264779 39698
METOP-B                 
1 38771U 12049A   23151.48568675  .00000134  00000+0  81224-4 0  9991
2 38771  98.6791 211.1387 0001520  92.3200 329.8571 14.21492176555170
FENGYUN 3C              
1 39260U 13052A   23151.35529432  .00000125  00000+0  83848-4 0  9998
2 39260  98.4286 166.3781 0010960 358.5614   1.5528 14.16039561501147
METEOR-M 2              
1 40069U 14037A   23151.43945434  .00000082  00000+0  57014-4 0  9992
2 40069  98.4234 158.1931 0006526  41.2662 318.9008 14.20780371461271
HIMAWARI-8              
1 40267U 14060A   23151.12757880 -.00000257  00000+0  00000+0 0  9993
2 40267   0.0193 318.9717 0000984  99.5573  16.4162  1.00270484 31706
FENGYUN 2G              
1 40367U 14090A   23150.91391476 -.00000285  00000+0  00000+0 0  9999
2 40367   2.8119  85.8282 0002654  56.0906 175.1785  1.00268907 30830
METEOSAT-11 (MSG-4)     
1 40732U 15034A   23151.32132722  .00000081  00000+0  00000+0 0  9990
2 40732   0.5706  38.7315 0000816   7.3678 327.5482  1.00264931 28859
ELEKTRO-L 2             
1 41105U 15074A   23150.94029277 -.00000097  00000+0  00000+0 0  9994
2 41105   3.8654  84.0296 0000772  64.4144  63.7454  1.00272698 27358
HIMAWARI-9              
1 41836U 16064A   23151.40130382 -.00000255  00000+0  00000+0 0  9993
2 41836   0.0374  99.1225 0000879 350.9307  83.8198  1.00271919 24145
GOES 16                 
1 41866U 16071A   23150.78478030 -.00000230  00000+0  00000+0 0  9992
2 41866   0.0501  97.3481 0000388 328.8207  29.1985  1.00272338 23942
FENGYUN 4A              
1 41882U 16077A   23150.63352917 -.00000313  00000+0  00000+0 0  9997
2 41882   0.0729 305.2627 0004029 202.1992  73.2744  1.00271254 23765
CYGFM05                 
1 41884U 16078A   23151.21402911  .00004525  00000+0  20585-3 0  9997
2 41884  34.9538 191.2005 0013839 325.8092  34.1729 15.20047868357754
CYGFM04                 
1 41885U 16078B   23151.39928764  .00004591  00000+0  20520-3 0  9998
2 41885  34.9473 177.2069 0011900 346.8519  13.1882 15.20667220357905
CYGFM02                 
1 41886U 16078C   23150.79012445  .00004553  00000+0  20326-3 0  9994
2 41886  34.9561 183.3454 0012880 334.7464  25.2619 15.20703639357731
CYGFM01                 
1 41887U 16078D   23150.80291331  .00004049  00000+0  18553-3 0  9999
2 41887  34.9508 196.7611 0014323 321.2163  38.7521 15.19820026357534
CYGFM08                 
1 41888U 16078E   23151.39482292  .00004603  00000+0  20736-3 0  9995
2 41888  34.9475 183.9489 0013180 340.3357  19.6847 15.20384022357808
CYGFM07                 
1 41890U 16078G   23151.41304365  .00004363  00000+0  19432-3 0  9999
2 41890  34.9495 176.8024 0011577 344.0157  16.0190 15.20810959357902
CYGFM03                 
1 41891U 16078H   23150.76613174  .00004220  00000+0  18897-3 0  9994
2 41891  34.9528 181.5775 0011233 335.6870  24.3312 15.20637017357644
FENGYUN 3D              
1 43010U 17072A   23151.42548215  .00000077  00000+0  58200-4 0  9990
2 43010  98.8610 100.0621 0001874  30.8718 329.2568 14.19167877287125
NOAA 20                 
1 43013U 17073A   23151.41762445  .00000066  00000+0  52309-4 0  9998
2 43013  98.7522  90.1475 0001415 102.6626 257.4709 14.19553276286593
GOES 17                 
1 43226U 18022A   23151.30101880 -.00000071  00000+0  00000+0 0  9990
2 43226   0.0433 124.4440 0002223 319.7034 168.0469  1.00271738 19276
FENGYUN 2H              
1 43491U 18050A   23151.38901360 -.00000108  00000+0  00000+0 0  9995
2 43491   2.0342  91.3124 0002894  61.8976 314.7167  1.00270950 18354
METOP-C                 
1 43689U 18087A   23151.44002137  .00000129  00000+0  78627-4 0  9992
2 43689  98.6837 211.2214 0004075 108.1292 252.0329 14.21509921236744
GEO-KOMPSAT-2A          
1 43823U 18100A   23151.39877604 -.00000324  00000+0  00000+0 0  9994
2 43823   0.0501 114.1782 0002410 325.4352  80.8417  1.00270424 16503
METEOR-M2 2             
1 44387U 19038A   23151.44602439  .00000039  00000+0  36391-4 0  9998
2 44387  98.7747 115.3852 0001612  33.9866 326.1415 14.23783530202923
FENGYUN 3E              
1 49008U 21062A   23151.44974077  .00000019  00000+0  29481-4 0  9993
2 49008  98.7214 153.1149 0002610  69.4716 290.6740 14.19682049 98694
GOES 18                 
1 51850U 22021A   23151.41696946  .00000116  00000+0  00000+0 0  9999
2 51850   0.0199  80.9441 0000563 331.0222 209.7858  1.00270537  4641
NOAA 21 (JPSS-2)        
1 54234U 22150A   23150.86998448  .00000085  00000+0  61223-4 0  9995
2 54234  98.7160  89.0929 0001513  93.1642 266.9707 14.19548350 28594
METEOSAT-12             
1 54743U 22170C   23150.79907532 -.00000012  00000+0  00000+0 0  9990
2 54743   0.6258 309.4905 0003282 115.8913 106.8316  1.00275058  1812
